[{"OBJECT_NAME":"STARLINK-5568","OBJECT_ID":"2023-013AT","EPOCH":"2026-03-09T23:25:27.304608","MEAN_MOTION":15.02536934,"ECCENTRICITY":0.00012973,"INCLINATION":43.0038,"RA_OF_ASC_NODE":311.668,"ARG_OF_PERICENTER":269.3719,"MEAN_ANOMALY":90.6975,"EPHEMERIS_TYPE":0,"CLASSIFICATION_TYPE":"U","NORAD_CAT_ID":55372,"ELEMENT_SET_NO":999,"REV_AT_EPOCH":17160,"BSTAR":3.8734465e-5,"MEAN_MOTION_DOT":3.2e-6,"MEAN_MOTION_DDOT":0},{"OBJECT_NAME":"NAXING 1","OBJECT_ID":"2004-012B","EPOCH":"2026-03-09T22:31:20.183520","MEAN_MOTION":15.05443462,"ECCENTRICITY":0.00121665,"INCLINATION":98.0152,"RA_OF_ASC_NODE":92.9199,"ARG_OF_PERICENTER":69.4128,"MEAN_ANOMALY":290.8402,"EPHEMERIS_TYPE":0,"CLASSIFICATION_TYPE":"U","NORAD_CAT_ID":28221,"ELEMENT_SET_NO":999,"REV_AT_EPOCH":19231,"BSTAR":0.00025838798,"MEAN_MOTION_DOT":3.649e-5,"MEAN_MOTION_DDOT":0}]
